GLOBALSTAR M084         
1 38040U 11080A   24302.71704150 -.00000073  00000+0  17005-3 0  9997
2 38040  52.0034  33.1519 0000337 135.1875  22.7108 12.62269243593437
GLOBALSTAR M080         
1 38041U 11080B   24302.77430049 -.00000083  00000+0  11664-3 0  9993
2 38041  52.0082  34.5036 0000576 160.0309  17.7667 12.62267310593565
GLOBALSTAR M082         
1 38042U 11080C   24302.86515477 -.00000052  00000+0  28710-3 0  9999
2 38042  52.0100 349.6509 0000793  68.1705 102.8964 12.62268540594283
GLOBALSTAR M092         
1 38043U 11080D   24302.83517146 -.00000077  00000+0  14941-3 0  9990
2 38043  52.0080  80.1023 0000687  98.5962  56.2973 12.62268459592732
GLOBALSTAR M090         
1 38044U 11080E   24302.89161610 -.00000058  00000+0  25406-3 0  9995
2 38044  51.9908 343.6765 0000593  80.8715  90.8251 12.62269500594403
GLOBALSTAR M086         
1 38045U 11080F   24302.83863618 -.00000066  00000+0  21010-3 0  9993
2 38045  51.9920 344.3703 0001095 148.6290  22.7823 12.62268973594342
GLOBALSTAR M097         
1 39072U 13005A   24302.90687670 -.00000086  00000+0  99395-4 0  9997
2 39072  52.0041 258.4750 0000753  80.3954 279.6998 12.62272453541600
GLOBALSTAR M093         
1 39073U 13005B   24302.56340122 -.00000083  00000+0  11446-3 0  9995
2 39073  51.9806 253.1922 0000866  74.2251 285.8711 12.62266347541515
